OSCAR 7 (AO-7)          
1 07530U 74089B   25125.85491076 -.00000023  00000+0  14763-3 0  9997
2 07530 101.9942 129.7485 0012178 186.6186 239.9767 12.53688849309474
PHASE 3B (AO-10)        
1 14129U 83058B   25123.94790819  .00000038  00000+0  00000+0 0  9990
2 14129  26.8430 288.3809 6055539   2.3423 359.4326  2.05869520287069
UOSAT 2 (UO-11)         
1 14781U 84021B   25125.86623598  .00002230  00000+0  24099-3 0  9991
2 14781  97.7517  92.9304 0009524  91.1182 269.1126 14.89279931196475
LUSAT (LO-19)           
1 20442U 90005G   25125.49809894  .00000248  00000+0  10562-3 0  9992
2 20442  98.8991 130.6951 0010917 326.2714  33.7774 14.33940289844028
EYESAT A (AO-27)        
1 22825U 93061C   25125.88160388  .00000178  00000+0  85041-4 0  9992
2 22825  98.7389 187.2600 0007880 207.5600 152.5165 14.30786984649028
ITAMSAT (IO-26)         
1 22826U 93061D   25125.91041430  .00000200  00000+0  92917-4 0  9999
2 22826  98.7337 187.1698 0008709 191.5166 168.5819 14.31198806649055
RADIO ROSTO (RS-15)     
1 23439U 94085A   25125.85518741 -.00000053  00000+0 -30217-3 0  9996
2 23439  64.8165 241.9588 0145645  81.1671 280.5712 11.27581468249978
JAS-2 (FO-29)           
1 24278U 96046B   25125.63377173  .00000028  00000+0  62014-4 0  9996
2 24278  98.5796  24.1201 0350954  73.1839 290.7484 13.53246256418044
TECHSAT 1B (GO-32)      
1 25397U 98043D   25125.84844244  .00000150  00000+0  85029-4 0  9996
2 25397  98.9684 104.2471 0000860   7.4431 352.6759 14.24305774393340
ISS (ZARYA)             
1 25544U 98067A   25126.17586691  .00009140  00000+0  17165-3 0  9995
2 25544  51.6365 155.1559 0002438  84.5145  23.8654 15.49368941508644
PCSAT (NO-44)           
1 26931U 01043C   25125.99692411  .00000235  00000+0  11917-3 0  9996
2 26931  67.0510 217.2525 0005737 272.9170  87.1276 14.31717363232314
SAUDISAT 1C (SO-50)     
1 27607U 02058C   25125.85817930  .00001738  00000+0  23444-3 0  9991
2 27607  64.5541 307.7054 0052183 342.1417  17.7852 14.81531359204080
CUTE-1 (CO-55)          
1 27844U 03031E   25125.82816040  .00000511  00000+0  24171-3 0  9990
2 27844  98.6770 134.5493 0008422 291.1659  68.8620 14.23968016133694
CUBESAT XI-IV (CO-57)   
1 27848U 03031J   25125.76038539  .00000441  00000+0  21408-3 0  9998
2 27848  98.6798 134.5142 0008509 310.7887  49.2553 14.23306524133414
