[
  {
    "OBJECT_NAME": "OSCAR 7 (AO-7)",
    "OBJECT_ID": "1974-089B",
    "EPOCH": "2025-05-05T20:31:04.289664",
    "MEAN_MOTION": 12.53688849,
    "ECCENTRICITY": 0.0012178,
    "INCLINATION": 101.9942,
    "RA_OF_ASC_NODE": 129.7485,
    "ARG_OF_PERICENTER": 186.6186,
    "MEAN_ANOMALY": 239.9767,
    "EPHEMERIS_TYPE": 0,
    "CLASSIFICATION_TYPE": "U",
    "NORAD_CAT_ID": 7530,
    "ELEMENT_SET_NO": 999,
    "REV_AT_EPOCH": 30947,
    "BSTAR": 0.00014763,
    "MEAN_MOTION_DOT": -2.3e-07,
    "MEAN_MOTION_DDOT": 0
  },
  {
    "OBJECT_NAME": "PHASE 3B (AO-10)",
    "OBJECT_ID": "1983-058B",
    "EPOCH": "2025-05-03T22:44:59.267616",
    "MEAN_MOTION": 2.0586952,
    "ECCENTRICITY": 0.6055539,
    "INCLINATION": 26.843,
    "RA_OF_ASC_NODE": 288.3809,
    "ARG_OF_PERICENTER": 2.3423,
    "MEAN_ANOMALY": 359.4326,
    "EPHEMERIS_TYPE": 0,
    "CLASSIFICATION_TYPE": "U",
    "NORAD_CAT_ID": 14129,
    "ELEMENT_SET_NO": 999,
    "REV_AT_EPOCH": 28706,
    "BSTAR": 0,
    "MEAN_MOTION_DOT": 3.8e-07,
    "MEAN_MOTION_DDOT": 0
  },
  {
    "OBJECT_NAME": "UOSAT 2 (UO-11)",
    "OBJECT_ID": "1984-021B",
    "EPOCH": "2025-05-05T20:47:22.788672",
    "MEAN_MOTION": 14.89279931,
    "ECCENTRICITY": 0.0009524,
    "INCLINATION": 97.7517,
    "RA_OF_ASC_NODE": 92.9304,
    "ARG_OF_PERICENTER": 91.1182,
    "MEAN_ANOMALY": 269.1126,
    "EPHEMERIS_TYPE": 0,
    "CLASSIFICATION_TYPE": "U",
    "NORAD_CAT_ID": 14781,
    "ELEMENT_SET_NO": 999,
    "REV_AT_EPOCH": 19647,
    "BSTAR": 0.00024099,
    "MEAN_MOTION_DOT": 2.23e-05,
    "MEAN_MOTION_DDOT": 0
  },
  {
    "OBJECT_NAME": "LUSAT (LO-19)",
    "OBJECT_ID": "1990-005G",
    "EPOCH": "2025-05-05T11:57:15.748416",
    "MEAN_MOTION": 14.33940289,
    "ECCENTRICITY": 0.0010917,
    "INCLINATION": 98.8991,
    "RA_OF_ASC_NODE": 130.6951,
    "ARG_OF_PERICENTER": 326.2714,
    "MEAN_ANOMALY": 33.7774,
    "EPHEMERIS_TYPE": 0,
    "CLASSIFICATION_TYPE": "U",
    "NORAD_CAT_ID": 20442,
    "ELEMENT_SET_NO": 999,
    "REV_AT_EPOCH": 84402,
    "BSTAR": 0.00010562,
    "MEAN_MOTION_DOT": 2.48e-06,
    "MEAN_MOTION_DDOT": 0
  },
  {
    "OBJECT_NAME": "EYESAT A (AO-27)",
    "OBJECT_ID": "1993-061C",
    "EPOCH": "2025-05-05T21:09:30.575232",
    "MEAN_MOTION": 14.30786984,
    "ECCENTRICITY": 0.000788,
    "INCLINATION": 98.7389,
    "RA_OF_ASC_NODE": 187.26,
    "ARG_OF_PERICENTER": 207.56,
    "MEAN_ANOMALY": 152.5165,
    "EPHEMERIS_TYPE": 0,
    "CLASSIFICATION_TYPE": "U",
    "NORAD_CAT_ID": 22825,
    "ELEMENT_SET_NO": 999,
    "REV_AT_EPOCH": 64902,
    "BSTAR": 8.5041e-05,
    "MEAN_MOTION_DOT": 1.78e-06,
    "MEAN_MOTION_DDOT": 0
  },
  {
    "OBJECT_NAME": "ITAMSAT (IO-26)",
    "OBJECT_ID": "1993-061D",
    "EPOCH": "2025-05-05T21:50:59.795520",
    "MEAN_MOTION": 14.31198806,
    "ECCENTRICITY": 0.0008709,
    "INCLINATION": 98.7337,
    "RA_OF_ASC_NODE": 187.1698,
    "ARG_OF_PERICENTER": 191.5166,
    "MEAN_ANOMALY": 168.5819,
    "EPHEMERIS_TYPE": 0,
    "CLASSIFICATION_TYPE": "U",
    "NORAD_CAT_ID": 22826,
    "ELEMENT_SET_NO": 999,
    "REV_AT_EPOCH": 64905,
    "BSTAR": 9.2917e-05,
    "MEAN_MOTION_DOT": 2e-06,
    "MEAN_MOTION_DDOT": 0
  },
  {
    "OBJECT_NAME": "RADIO ROSTO (RS-15)",
    "OBJECT_ID": "1994-085A",
    "EPOCH": "2025-05-05T20:31:28.192224",
    "MEAN_MOTION": 11.27581468,
    "ECCENTRICITY": 0.0145645,
    "INCLINATION": 64.8165,
    "RA_OF_ASC_NODE": 241.9588,
    "ARG_OF_PERICENTER": 81.1671,
    "MEAN_ANOMALY": 280.5712,
    "EPHEMERIS_TYPE": 0,
    "CLASSIFICATION_TYPE": "U",
    "NORAD_CAT_ID": 23439,
    "ELEMENT_SET_NO": 999,
    "REV_AT_EPOCH": 24997,
    "BSTAR": -0.00030217,
    "MEAN_MOTION_DOT": -5.3e-07,
    "MEAN_MOTION_DDOT": 0
  },
  {
    "OBJECT_NAME": "JAS-2 (FO-29)",
    "OBJECT_ID": "1996-046B",
    "EPOCH": "2025-05-05T15:12:37.877472",
    "MEAN_MOTION": 13.53246256,
    "ECCENTRICITY": 0.0350954,
    "INCLINATION": 98.5796,
    "RA_OF_ASC_NODE": 24.1201,
    "ARG_OF_PERICENTER": 73.1839,
    "MEAN_ANOMALY": 290.7484,
    "EPHEMERIS_TYPE": 0,
    "CLASSIFICATION_TYPE": "U",
    "NORAD_CAT_ID": 24278,
    "ELEMENT_SET_NO": 999,
    "REV_AT_EPOCH": 41804,
    "BSTAR": 6.2014e-05,
    "MEAN_MOTION_DOT": 2.8e-07,
    "MEAN_MOTION_DDOT": 0
  },
  {
    "OBJECT_NAME": "TECHSAT 1B (GO-32)",
    "OBJECT_ID": "1998-043D",
    "EPOCH": "2025-05-05T20:21:45.426816",
    "MEAN_MOTION": 14.24305774,
    "ECCENTRICITY": 8.6e-05,
    "INCLINATION": 98.9684,
    "RA_OF_ASC_NODE": 104.2471,
    "ARG_OF_PERICENTER": 7.4431,
    "MEAN_ANOMALY": 352.6759,
    "EPHEMERIS_TYPE": 0,
    "CLASSIFICATION_TYPE": "U",
    "NORAD_CAT_ID": 25397,
    "ELEMENT_SET_NO": 999,
    "REV_AT_EPOCH": 39334,
    "BSTAR": 8.5029e-05,
    "MEAN_MOTION_DOT": 1.5e-06,
    "MEAN_MOTION_DDOT": 0
  },
  {
    "OBJECT_NAME": "ISS (ZARYA)",
    "OBJECT_ID": "1998-067A",
    "EPOCH": "2025-05-06T04:13:14.901024",
    "MEAN_MOTION": 15.49368941,
    "ECCENTRICITY": 0.0002438,
    "INCLINATION": 51.6365,
    "RA_OF_ASC_NODE": 155.1559,
    "ARG_OF_PERICENTER": 84.5145,
    "MEAN_ANOMALY": 23.8654,
    "EPHEMERIS_TYPE": 0,
    "CLASSIFICATION_TYPE": "U",
    "NORAD_CAT_ID": 25544,
    "ELEMENT_SET_NO": 999,
    "REV_AT_EPOCH": 50864,
    "BSTAR": 0.00017165,
    "MEAN_MOTION_DOT": 9.14e-05,
    "MEAN_MOTION_DDOT": 0
  },
  {
    "OBJECT_NAME": "PCSAT (NO-44)",
    "OBJECT_ID": "2001-043C",
    "EPOCH": "2025-05-05T23:55:34.243104",
    "MEAN_MOTION": 14.31717363,
    "ECCENTRICITY": 0.0005737,
    "INCLINATION": 67.051,
    "RA_OF_ASC_NODE": 217.2525,
    "ARG_OF_PERICENTER": 272.917,
    "MEAN_ANOMALY": 87.1276,
    "EPHEMERIS_TYPE": 0,
    "CLASSIFICATION_TYPE": "U",
    "NORAD_CAT_ID": 26931,
    "ELEMENT_SET_NO": 999,
    "REV_AT_EPOCH": 23231,
    "BSTAR": 0.00011917,
    "MEAN_MOTION_DOT": 2.35e-06,
    "MEAN_MOTION_DDOT": 0
  },
  {
    "OBJECT_NAME": "SAUDISAT 1C (SO-50)",
    "OBJECT_ID": "2002-058C",
    "EPOCH": "2025-05-05T20:35:46.691520",
    "MEAN_MOTION": 14.81531359,
    "ECCENTRICITY": 0.0052183,
    "INCLINATION": 64.5541,
    "RA_OF_ASC_NODE": 307.7054,
    "ARG_OF_PERICENTER": 342.1417,
    "MEAN_ANOMALY": 17.7852,
    "EPHEMERIS_TYPE": 0,
    "CLASSIFICATION_TYPE": "U",
    "NORAD_CAT_ID": 27607,
    "ELEMENT_SET_NO": 999,
    "REV_AT_EPOCH": 20408,
    "BSTAR": 0.00023444,
    "MEAN_MOTION_DOT": 1.738e-05,
    "MEAN_MOTION_DDOT": 0
  },
  {
    "OBJECT_NAME": "CUTE-1 (CO-55)",
    "OBJECT_ID": "2003-031E",
    "EPOCH": "2025-05-05T19:52:33.058560",
    "MEAN_MOTION": 14.23968016,
    "ECCENTRICITY": 0.0008422,
    "INCLINATION": 98.677,
    "RA_OF_ASC_NODE": 134.5493,
    "ARG_OF_PERICENTER": 291.1659,
    "MEAN_ANOMALY": 68.862,
    "EPHEMERIS_TYPE": 0,
    "CLASSIFICATION_TYPE": "U",
    "NORAD_CAT_ID": 27844,
    "ELEMENT_SET_NO": 999,
    "REV_AT_EPOCH": 13369,
    "BSTAR": 0.00024171,
    "MEAN_MOTION_DOT": 5.11e-06,
    "MEAN_MOTION_DDOT": 0
  },
  {
    "OBJECT_NAME": "CUBESAT XI-IV (CO-57)",
    "OBJECT_ID": "2003-031J",
    "EPOCH": "2025-05-05T18:14:57.297696",
    "MEAN_MOTION": 14.23306524,
    "ECCENTRICITY": 0.0008509,
    "INCLINATION": 98.6798,
    "RA_OF_ASC_NODE": 134.5142,
    "ARG_OF_PERICENTER": 310.7887,
    "MEAN_ANOMALY": 49.2553,
    "EPHEMERIS_TYPE": 0,
    "CLASSIFICATION_TYPE": "U",
    "NORAD_CAT_ID": 27848,
    "ELEMENT_SET_NO": 999,
    "REV_AT_EPOCH": 13341,
    "BSTAR": 0.00021408,
    "MEAN_MOTION_DOT": 4.41e-06,
    "MEAN_MOTION_DDOT": 0
  }
]